[{"OBJECT_NAME":"STARLINK-32821","OBJECT_ID":"2025-037B","EPOCH":"2026-03-09T23:33:38.449728","MEAN_MOTION":14.98375397,"ECCENTRICITY":0.00045199,"INCLINATION":70.0079,"RA_OF_ASC_NODE":353.8116,"ARG_OF_PERICENTER":200.8938,"MEAN_ANOMALY":159.2037,"EPHEMERIS_TYPE":0,"CLASSIFICATION_TYPE":"U","NORAD_CAT_ID":63078,"ELEMENT_SET_NO":999,"REV_AT_EPOCH":5863,"BSTAR":0.003431592,"MEAN_MOTION_DOT":0.00041146,"MEAN_MOTION_DDOT":0},{"OBJECT_NAME":"MINOTAUR 1 R\/B","OBJECT_ID":"2021-052D","EPOCH":"2026-03-09T21:18:39.973824","MEAN_MOTION":14.98028633,"ECCENTRICITY":0.00079769,"INCLINATION":54.9882,"RA_OF_ASC_NODE":195.5395,"ARG_OF_PERICENTER":41.2727,"MEAN_ANOMALY":318.8885,"EPHEMERIS_TYPE":0,"CLASSIFICATION_TYPE":"U","NORAD_CAT_ID":48849,"ELEMENT_SET_NO":999,"REV_AT_EPOCH":16111,"BSTAR":0.00022925551,"MEAN_MOTION_DOT":2.48e-5,"MEAN_MOTION_DDOT":0}]
